{
  "type": "FeatureCollection",
  "features": [
    {
      "type": "Feature",
      "geometry": {"type": "LineString", "coordinates": [[-118.2437, 34.0522], [-118.2434, 34.0525], [-118.2430, 34.0528]]},
      "properties": {
        "segment_id": "111_222_0",
        "connects": [111, 222],
        "length_m": 87.5,
        "district_id": "DUMMY",
        "subarea_id": "DUMMY",
        "street_name": null
      }
    },
    {
      "type": "Feature",
      "geometry": {"type": "LineString", "coordinates": [[-118.2430, 34.0528], [-118.2422, 34.0535]]},
      "properties": {
        "segment_id": "222_333_0",
        "connects": [222, 333],
        "length_m": 103.2,
        "district_id": "DUMMY",
        "subarea_id": "DUMMY",
        "street_name": "South Spring Street"
      }
    },
    {
      "type": "Feature",
      "geometry": {"type": "LineString", "coordinates": [[-118.2422, 34.0535], [-118.2415, 34.0541]]},
      "properties": {
        "segment_id": "333_3000000000_0",
        "connects": [333, 3000000000],
        "length_m": 96.4,
        "district_id": "DUMMY",
        "subarea_id": "DUMMY",
        "street_name": ["East 1st Street", "South Main Street"]
      }
    }
  ]
}
